CZ-2D R/B               
1 53317U 22088B   22231.27120968  .00025053  00000+0  97491-3 0  9991
2 53317  35.0002 354.2302 0007827  82.6668 113.8227 15.25071814  3157
YAOGAN-35 03B           
1 53318U 22088C   22231.11592593  .00005701  00000+0  23814-3 0  9998
2 53318  34.9988 355.3982 0004371  40.9010 310.9565 15.22977713  3126
CZ-2D DEB               
1 53319U 22088D   22231.09762731  .00014994  00000+0  58563-3 0  9992
2 53319  34.9998 355.2931 0007824  94.4920 239.6406 15.25028827  3128
YAOGAN-35 03C           
1 53320U 22088E   22231.07889611  .00008812  00000+0  36763-3 0  9999
2 53320  34.9982 355.5800 0004633  47.9166 119.7470 15.22924990  3134
RS4S                    
1 53321U 98067TZ  22231.48064807  .00040512  00000+0  66540-3 0  9996
2 53321  51.6429  22.8549 0002274 136.3949 223.7221 15.51992292  4539
COSMOS 2558             
1 53323U 22089A   22230.91967287  .00018034  00000+0  43433-3 0  9990
2 53323  97.2343 328.9359 0010840 203.2633 156.8124 15.41257745  2636
SL-4 R/B                
1 53324U 22089B   22231.22164445  .00085062  42469-5  45465-3 0  9994
2 53324  97.2527 330.1124 0100018   5.0352 355.1893 15.73310734  2730
2022-090A               
1 53346U 22090A   22231.23950066  .00002496  00000+0  11024-3 0  9996
2 53346  97.4713 303.9708 0010394 201.5701 244.0278 15.22633177  2306
2022-090B               
1 53347U 22090B   22231.23070513  .00007424  00000+0  31215-3 0  9997
2 53347  97.4714 303.9830 0011970 220.2497 224.8047 15.23642799  2294
2022-090C               
1 53348U 22090C   22231.22843995  .00009997  00000+0  41818-3 0  9996
2 53348  97.4704 303.9789 0011536 221.6898 213.2745 15.23724624  2290
CZ-4B R/B               
1 53349U 22090D   22230.93293605  .00059230  31502-5  40799-3 0  9990
2 53349  97.5149 304.6308 0154187 335.8047  23.6046 15.60195166  2318
SBIRS GEO-6 (USA 336)   
1 53355U 22092A   22230.64726260  .00000106  00000+0  00000+0 0  9993
2 53355   6.5787 312.4429 0006940 175.3830 284.9558  1.00483984   218
ATLAS 5 CENTAUR R/B     
1 53356U 22092B   22230.22917870 -.00000277  00000+0  00000+0 0  9997
2 53356  16.4572 311.9550 5659067 179.2513 182.2652  1.99526488   276
PRC TEST SPACECRAFT2    
1 53357U 22093A   22231.19210218  .00002511  00000+0  57151-4 0  9994
2 53357  49.9925  91.7671 0180584 208.4657 150.6346 15.32178313  2238
CZ-2F R/B               
1 53358U 22093B   22231.05959282  .00011108  00000+0  21629-3 0  9993
2 53358  49.9905  92.4044 0179453 207.7940 151.3341 15.32491139  2203
CZ-2F DEB               
1 53359U 22093C   22231.21967962  .00138836  00000+0  25283-2 0  9993
2 53359  50.3023  92.8542 0233463 224.4463 133.7555 15.23999576  2227
CZ-2F DEB               
1 53360U 22093D   22230.79886291  .00130606  00000+0  26116-2 0  9995
2 53360  50.3310  95.3671 0245682 216.8707 141.5139 15.19592372  2145
CZ-2F DEB               
1 53361U 22093E   22231.01852711  .00113910  00000+0  29942-2 0  9991
2 53361  49.7519  96.3926 0337415 205.9311 152.4379 14.96110439  2151
CZ-2F DEB               
1 53362U 22093F   22230.71470264  .00089317  00000+0  24271-2 0  9990
2 53362  49.8054  98.1849 0350782 201.6658 156.9124 14.92826434  2107
2022-093G               
1 53363U 22093G   22230.43194964  .00464967  00000+0  52279-2 0  9997
2 53363  50.0227  94.9680 0194678 218.1831 140.5207 15.41304710  2123
2022-093H               
1 53364U 22093H   22231.43598448  .00000700  00000+0  70445-4 0  9992
2 53364  50.0284  94.0318 0110463 258.6835 100.1676 15.00033867  2218
DANURI (KPLO)           
1 53365U 22094A   22216.96995833  .00001843 -58274-5  00000+0 0  9991
2 53365  29.5000 147.2458 0003300 140.4700 307.5200 16.09976711    07
2022-095A               
1 53367U 22095A   22231.40424831  .00007913  00000+0  29810-3 0  9990
2 53367  97.4097 305.2244 0079948  42.4780  20.9906 15.24349187  1566
2022-095B               
1 53368U 22095B   22231.40284900  .00008175  00000+0  30588-3 0  9997
2 53368  97.4091 305.2260 0079977  41.7944  21.4809 15.24555344  1556
2022-095C               
1 53369U 22095C   22231.40216499  .00005966  00000+0  22358-3 0  9997
2 53369  97.4089 305.2266 0079747  41.2309  22.8484 15.24649865  1551
2022-096A               
1 53370U 22096A   22231.47980948  .00003587  00000+0  14995-3 0  9999
2 53370  97.4351 132.8681 0001840  93.0751 267.0697 15.24253621  1577
2022-096B               
1 53371U 22096B   22231.47886857  .00005867  00000+0  24217-3 0  9995
2 53371  97.4352 132.8690 0002913 118.4541 241.6991 15.24415628  1572
2022-096C               
1 53372U 22096C   22231.47878470  .00005709  00000+0  23562-3 0  9995
2 53372  97.4352 132.8691 0002906 115.9581 244.1956 15.24426281  1556
RS29S (SXC3-2110 CYCLO*)
1 53373U 22096D   22231.41258892  .00009340  00000+0  38226-3 0  9998
2 53373  97.4349 132.8048 0003165 118.0147 242.1410 15.24532525  1540
RS32S (SXC3-212 MONITO*)
1 53374U 22096E   22231.54316225  .00008366  00000+0  34166-3 0  9994
2 53374  97.4350 132.9361 0003402 113.1292 247.0304 15.24639420  1563
RS34S (SXC3-218 KUZBAS*)
1 53375U 22096F   22231.21484836  .00007649  00000+0  31257-3 0  9994
2 53375  97.4349 132.6105 0003388 113.1904 246.9691 15.24647977  1516
RS23S (SXC3-21 UTMN)    
1 53376U 22096G   22231.21463325  .00008599  00000+0  35061-3 0  9997
2 53376  97.4350 132.6107 0003386 111.6568 248.5030 15.24686102  1516
RS28S (SXC3-214 MIET-A*)
1 53377U 22096H   22231.54257311  .00007213  00000+0  29433-3 0  9998
2 53377  97.4351 132.9368 0003446 111.0678 249.0929 15.24716263  1563
RS26S (KAI-1)           
1 53378U 22096J   22231.41104621  .00007435  00000+0  30301-3 0  9992
2 53378  97.4350 132.8069 0003456 106.1964 253.9654 15.24751198  1547
2022-096K               
1 53379U 22096K   22231.21215588  .00006833  00000+0  27615-3 0  9991
2 53379  97.4351 132.6139 0005540  69.4654 290.7177 15.25052926  1518
2022-096L               
1 53380U 22096L   22231.21209757  .00007065  00000+0  28533-3 0  9992
2 53380  97.4350 132.6141 0005600  69.1594 291.0243 15.25062763  1517
RS19S (SXC3-219 ISOI)   
1 53381U 22096M   22230.88352573  .00008695  00000+0  34951-3 0  9991
2 53381  97.4350 132.2889 0005901  69.3644 290.8226 15.25150036  1468
RS8S (SXC3-2111 RESHUC*)
1 53382U 22096N   22231.23458076  .00008109  00000+0  32608-3 0  9994
2 53382  97.4344 132.6358 0006035  63.9589  62.7038 15.25158545  1510
RS21S (CUBESX-HSE-2)    
1 53383U 22096P   22231.53920055  .00007181  00000+0  28862-3 0  9995
2 53383  97.4349 132.9413 0006029  66.8028 293.3844 15.25219243  1569
RS30S (SXC3-217 SIREN)  
1 53384U 22096Q   22231.21101525  .00008396  00000+0  33675-3 0  9991
2 53384  97.4349 132.6155 0006123  66.8225 293.3657 15.25236199  1510
RS20S (GEOSCAN-EDELVEIS)
1 53385U 22096R   22231.40688202  .00009008  00000+0  35931-3 0  9993
2 53385  97.4349 132.8124 0006605  66.5688 293.6244 15.25394883  1570
RS33S (SXC3-215 VIZARD) 
1 53386U 22096S   22231.53669246  .00009571  00000+0  37894-3 0  9990
2 53386  97.4350 132.9446 0007357  65.7433 294.4573 15.25620066  1585
2022-095D               
1 53387U 22095D   22231.39563750  .00004459  00000+0  16076-3 0  9996
2 53387  97.4069 305.2262 0085208  37.6701  27.1359 15.25633954  1562
STARLINK-4522           
1 53388U 22097A   22230.91667824 -.01191521  00000+0 -81071-2 0  9999
2 53388  53.2175 204.9179 0003672   2.8365  89.3578 15.76941587  1303
STARLINK-4523           
1 53389U 22097B   22230.91667824 -.01192322  00000+0 -81009-2 0  9991
2 53389  53.2175 204.9150 0003767   1.4704  91.7497 15.76974145  1303
STARLINK-4517           
1 53390U 22097C   22230.91667824 -.01192251  00000+0 -81069-2 0  9990
2 53390  53.2175 204.9168 0003696   2.0225  90.6896 15.76957165  1304
STARLINK-4521           
1 53391U 22097D   22231.25001157 -.01195999  00000+0 -84422-2 0  9998
2 53391  53.2173 203.2586 0003887   4.0995 182.5744 15.76126648  1854
STARLINK-4535           
1 53392U 22097E   22230.91667824 -.01192420  00000+0 -80834-2 0  9999
2 53392  53.2175 204.9129 0003611   2.5200  92.2138 15.77026605  1302
STARLINK-4530           
1 53393U 22097F   22231.25001157 -.01196444  00000+0 -84367-2 0  9994
2 53393  53.2173 203.2577 0004381   0.4671 186.7358 15.76143356  1859
STARLINK-4544           
1 53394U 22097G   22230.91667824 -.01191728  00000+0 -80611-2 0  9994
2 53394  53.2175 204.9098 0003254   6.6859  89.5587 15.77078485  1307
STARLINK-4534           
1 53395U 22097H   22231.25001157 -.01196226  00000+0 -84237-2 0  9990
2 53395  53.2173 203.2556 0004039   2.9094 185.3423 15.76178485  1853
STARLINK-4524           
1 53396U 22097J   22231.25001157 -.01195421  00000+0 -83967-2 0  9996
2 53396  53.2173 203.2519 0002955  12.8683 177.4759 15.76248579  1858
STARLINK-4515           
1 53397U 22097K   22231.25001157 -.01196027  00000+0 -84170-2 0  9997
2 53397  53.2173 203.2546 0003769   5.0126 183.7627 15.76196072  1853
STARLINK-4512           
1 53398U 22097L   22231.25001157 -.01195484  00000+0 -83844-2 0  9991
2 53398  53.2173 203.2498 0002953  12.8676 178.5243 15.76282837  1851
STARLINK-4528           
1 53399U 22097M   22231.25001157 -.01196313  00000+0 -84048-2 0  9991
2 53399  53.2173 203.2525 0004020   3.0238 186.7989 15.76231023  1855
STARLINK-4520           
1 53400U 22097N   22230.91667824 -.01191853  00000+0 -80249-2 0  9998
2 53400  53.2175 204.9039 0003144   7.7534  91.5027 15.77182754  1307
STARLINK-4525           
1 53401U 22097P   22231.25001157 -.01196274  00000+0 -83921-2 0  9990
2 53401  53.2173 203.2505 0003892   4.0007 186.8674 15.76265999  1859
STARLINK-4499           
1 53402U 22097Q   22230.91667824 -.01191963  00000+0 -80180-2 0  9996
2 53402  53.2175 204.9029 0003440   5.1668  94.5895 15.77200176  1302
STARLINK-4507           
1 53403U 22097R   22231.25001157 -.01196103  00000+0 -83795-2 0  9992
2 53403  53.2173 203.2484 0003610   6.3054 185.6099 15.76300111  1856
